ONEWEB-0578             
1 56067U 23043X   25357.79039433  .00000011  00000+0 -55316-5 0  9993
2 56067  87.9227 278.9584 0001575  81.5143 278.6169 13.21824786135060
ONEWEB-0579             
1 56068U 23043Y   25357.55341831 -.00000022  00000+0 -84487-4 0  9999
2 56068  87.9231 278.9931 0001945  67.8622 292.2718 13.21828493135041
ONEWEB-0581             
1 56069U 23043Z   25357.74927266 -.00000282  00000+0 -77255-3 0  9995
2 56069  87.9049 263.7157 0002018  79.9052 280.2306 13.16593612135871
ONEWEB-0609             
1 56070U 23043AA  25357.79555676 -.00000281  00000+0 -78114-3 0  9998
2 56070  87.9005 294.2178 0001720  73.7413 286.3907 13.15547981133373
ONEWEB-0613             
1 56071U 23043AB  25357.79079481 -.00000364  00000+0 -10004-2 0  9999
2 56071  87.9005 294.2310 0001840  68.0774 292.0552 13.15547732133376
ONEWEB-0630             
1 56072U 23043AC  25357.78603784 -.00000353  00000+0 -97176-3 0  9992
2 56072  87.9003 294.2034 0001883  67.0888 293.0441 13.15547874133364
ONEWEB-0632             
1 56073U 23043AD  25357.78129808 -.00000061  00000+0 -19516-3 0  9991
2 56073  87.9000 294.2221 0001961  77.7229 282.4121 13.15548236133364
ONEWEB-0633             
1 56074U 23043AE  25357.54678132 -.00000348  00000+0 -95728-3 0  9992
2 56074  87.8999 294.2323 0001752  64.0103 296.1208 13.15547614133314
